CCSDS_OMM_VERS = 2.0
CREATION_DATE  = 
ORIGINATOR     = 

OBJECT_NAME    = STARLINK-36208
OBJECT_ID      = 2025-299G
CENTER_NAME    = EARTH
REF_FRAME      = TEME
TIME_SYSTEM    = UTC
MEAN_ELEMENT_THEORY = SGP/SGP4

EPOCH          = 2026-01-05T14:00:03.000384
MEAN_MOTION    = 15.50624329
ECCENTRICITY   = .00013753
INCLINATION    = 42.9998
RA_OF_ASC_NODE = 172.4929
ARG_OF_PERICENTER = 269.9813
MEAN_ANOMALY   = 62.7734

EPHEMERIS_TYPE = 0
CLASSIFICATION_TYPE = U
NORAD_CAT_ID   = 67108
ELEMENT_SET_NO = 999
REV_AT_EPOCH   = 464
BSTAR          = -.25967742E-2
MEAN_MOTION_DOT = -.15004E-2
MEAN_MOTION_DDOT = 0

CCSDS_OMM_VERS = 2.0
CREATION_DATE  = 
ORIGINATOR     = 

OBJECT_NAME    = STARLINK-35764
OBJECT_ID      = 2025-299H
CENTER_NAME    = EARTH
REF_FRAME      = TEME
TIME_SYSTEM    = UTC
MEAN_ELEMENT_THEORY = SGP/SGP4

EPOCH          = 2026-01-05T14:00:03.000384
MEAN_MOTION    = 15.44576957
ECCENTRICITY   = .00013117
INCLINATION    = 42.9999
RA_OF_ASC_NODE = 172.5237
ARG_OF_PERICENTER = 264.0444
MEAN_ANOMALY   = 56.1968

EPHEMERIS_TYPE = 0
CLASSIFICATION_TYPE = U
NORAD_CAT_ID   = 67109
ELEMENT_SET_NO = 999
REV_AT_EPOCH   = 453
BSTAR          = -.48930656E-1
MEAN_MOTION_DOT = -.2067773E-1
MEAN_MOTION_DDOT = 0

CCSDS_OMM_VERS = 2.0
CREATION_DATE  = 
ORIGINATOR     = 

OBJECT_NAME    = STARLINK-35781
OBJECT_ID      = 2025-299J
CENTER_NAME    = EARTH
REF_FRAME      = TEME
TIME_SYSTEM    = UTC
MEAN_ELEMENT_THEORY = SGP/SGP4

EPOCH          = 2026-01-05T14:00:03.000384
MEAN_MOTION    = 15.50632472
ECCENTRICITY   = .00015826
INCLINATION    = 42.9999
RA_OF_ASC_NODE = 172.4772
ARG_OF_PERICENTER = 263.8432
MEAN_ANOMALY   = 74.6481

EPHEMERIS_TYPE = 0
CLASSIFICATION_TYPE = U
NORAD_CAT_ID   = 67110
ELEMENT_SET_NO = 999
REV_AT_EPOCH   = 459
BSTAR          = -.23094925E-2
MEAN_MOTION_DOT = -.133796E-2
MEAN_MOTION_DDOT = 0

CCSDS_OMM_VERS = 2.0
CREATION_DATE  = 
ORIGINATOR     = 

OBJECT_NAME    = STARLINK-35875
OBJECT_ID      = 2025-299K
CENTER_NAME    = EARTH
REF_FRAME      = TEME
TIME_SYSTEM    = UTC
MEAN_ELEMENT_THEORY = SGP/SGP4

EPOCH          = 2026-01-05T14:00:03.000384
MEAN_MOTION    = 15.50656635
ECCENTRICITY   = .00015586
INCLINATION    = 42.9997
RA_OF_ASC_NODE = 172.4835
ARG_OF_PERICENTER = 265.1645
MEAN_ANOMALY   = 71.4034

EPHEMERIS_TYPE = 0
CLASSIFICATION_TYPE = U
NORAD_CAT_ID   = 67111
ELEMENT_SET_NO = 999
REV_AT_EPOCH   = 453
BSTAR          = -.31130138E-2
MEAN_MOTION_DOT = -.179346E-2
MEAN_MOTION_DDOT = 0

CCSDS_OMM_VERS = 2.0
CREATION_DATE  = 
ORIGINATOR     = 

OBJECT_NAME    = STARLINK-35906
OBJECT_ID      = 2025-299L
CENTER_NAME    = EARTH
REF_FRAME      = TEME
TIME_SYSTEM    = UTC
MEAN_ELEMENT_THEORY = SGP/SGP4

EPOCH          = 2026-01-05T14:00:03.000384
MEAN_MOTION    = 15.50636483
ECCENTRICITY   = .00014577
INCLINATION    = 42.9999
RA_OF_ASC_NODE = 172.4726
ARG_OF_PERICENTER = 268.5973
MEAN_ANOMALY   = 71.8091

EPHEMERIS_TYPE = 0
CLASSIFICATION_TYPE = U
NORAD_CAT_ID   = 67112
ELEMENT_SET_NO = 999
REV_AT_EPOCH   = 453
BSTAR          = -.24407206E-2
MEAN_MOTION_DOT = -.141263E-2
MEAN_MOTION_DDOT = 0

CCSDS_OMM_VERS = 2.0
CREATION_DATE  = 
ORIGINATOR     = 

OBJECT_NAME    = STARLINK-35789
OBJECT_ID      = 2025-299M
CENTER_NAME    = EARTH
REF_FRAME      = TEME
TIME_SYSTEM    = UTC
MEAN_ELEMENT_THEORY = SGP/SGP4

EPOCH          = 2026-01-05T14:00:03.000384
MEAN_MOTION    = 15.50565333
ECCENTRICITY   = .00015718
INCLINATION    = 42.9999
RA_OF_ASC_NODE = 172.4677
ARG_OF_PERICENTER = 259.8582
MEAN_ANOMALY   = 82.4211

EPHEMERIS_TYPE = 0
CLASSIFICATION_TYPE = U
NORAD_CAT_ID   = 67113
ELEMENT_SET_NO = 999
REV_AT_EPOCH   = 453
BSTAR          = .25357533E-3
MEAN_MOTION_DOT = .14555E-3
MEAN_MOTION_DDOT = 0

CCSDS_OMM_VERS = 2.0
CREATION_DATE  = 
ORIGINATOR     = 

OBJECT_NAME    = STARLINK-36180
OBJECT_ID      = 2025-299N
CENTER_NAME    = EARTH
REF_FRAME      = TEME
TIME_SYSTEM    = UTC
MEAN_ELEMENT_THEORY = SGP/SGP4

EPOCH          = 2026-01-05T14:00:03.000384
MEAN_MOTION    = 15.50606443
ECCENTRICITY   = .00015625
INCLINATION    = 42.9998
RA_OF_ASC_NODE = 172.4630
ARG_OF_PERICENTER = 259.7578
MEAN_ANOMALY   = 84.5008

EPHEMERIS_TYPE = 0
CLASSIFICATION_TYPE = U
NORAD_CAT_ID   = 67114
ELEMENT_SET_NO = 999
REV_AT_EPOCH   = 464
BSTAR          = -.19189532E-2
MEAN_MOTION_DOT = -.11144E-2
MEAN_MOTION_DDOT = 0

CCSDS_OMM_VERS = 2.0
CREATION_DATE  = 
ORIGINATOR     = 

OBJECT_NAME    = STARLINK-35892
OBJECT_ID      = 2025-299P
CENTER_NAME    = EARTH
REF_FRAME      = TEME
TIME_SYSTEM    = UTC
MEAN_ELEMENT_THEORY = SGP/SGP4

EPOCH          = 2026-01-05T14:00:03.000384
MEAN_MOTION    = 15.46271759
ECCENTRICITY   = .00014159
INCLINATION    = 42.9995
RA_OF_ASC_NODE = 172.4772
ARG_OF_PERICENTER = 263.2201
MEAN_ANOMALY   = 75.5092

EPHEMERIS_TYPE = 0
CLASSIFICATION_TYPE = U
NORAD_CAT_ID   = 67115
ELEMENT_SET_NO = 999
REV_AT_EPOCH   = 453
BSTAR          = -.46096145E-1
MEAN_MOTION_DOT = -.2066054E-1
MEAN_MOTION_DDOT = 0

CCSDS_OMM_VERS = 2.0
CREATION_DATE  = 
ORIGINATOR     = 

OBJECT_NAME    = STARLINK-35738
OBJECT_ID      = 2025-299Q
CENTER_NAME    = EARTH
REF_FRAME      = TEME
TIME_SYSTEM    = UTC
MEAN_ELEMENT_THEORY = SGP/SGP4

EPOCH          = 2026-01-05T14:00:03.000384
MEAN_MOTION    = 15.50772956
ECCENTRICITY   = .00014553
INCLINATION    = 42.9996
RA_OF_ASC_NODE = 172.4534
ARG_OF_PERICENTER = 260.0069
MEAN_ANOMALY   = 88.0572

EPHEMERIS_TYPE = 0
CLASSIFICATION_TYPE = U
NORAD_CAT_ID   = 67116
ELEMENT_SET_NO = 999
REV_AT_EPOCH   = 453
BSTAR          = -.40110608E-1
MEAN_MOTION_DOT = -.2103764E-1
MEAN_MOTION_DDOT = 0

CCSDS_OMM_VERS = 2.0
CREATION_DATE  = 
ORIGINATOR     = 

OBJECT_NAME    = STARLINK-35674
OBJECT_ID      = 2025-299R
CENTER_NAME    = EARTH
REF_FRAME      = TEME
TIME_SYSTEM    = UTC
MEAN_ELEMENT_THEORY = SGP/SGP4

EPOCH          = 2026-01-05T14:00:03.000384
MEAN_MOTION    = 15.40658644
ECCENTRICITY   = .00018888
INCLINATION    = 43.0000
RA_OF_ASC_NODE = 172.5671
ARG_OF_PERICENTER = 268.8422
MEAN_ANOMALY   = 32.5181

EPHEMERIS_TYPE = 0
CLASSIFICATION_TYPE = U
NORAD_CAT_ID   = 67117
ELEMENT_SET_NO = 999
REV_AT_EPOCH   = 443
BSTAR          = .79836099E-3
MEAN_MOTION_DOT = .33146E-3
MEAN_MOTION_DDOT = 0

CCSDS_OMM_VERS = 2.0
CREATION_DATE  = 
ORIGINATOR     = 

OBJECT_NAME    = STARLINK-35701
OBJECT_ID      = 2025-299S
CENTER_NAME    = EARTH
REF_FRAME      = TEME
TIME_SYSTEM    = UTC
MEAN_ELEMENT_THEORY = SGP/SGP4

EPOCH          = 2026-01-05T14:00:03.000384
MEAN_MOTION    = 15.50615862
ECCENTRICITY   = .00014192
INCLINATION    = 42.9998
RA_OF_ASC_NODE = 172.4453
ARG_OF_PERICENTER = 266.2784
MEAN_ANOMALY   = 85.6509

EPHEMERIS_TYPE = 0
CLASSIFICATION_TYPE = U
NORAD_CAT_ID   = 67118
ELEMENT_SET_NO = 999
REV_AT_EPOCH   = 459
BSTAR          = -.24224377E-2
MEAN_MOTION_DOT = -.140124E-2
MEAN_MOTION_DDOT = 0

CCSDS_OMM_VERS = 2.0
CREATION_DATE  = 
ORIGINATOR     = 

OBJECT_NAME    = STARLINK-36179
OBJECT_ID      = 2025-299T
CENTER_NAME    = EARTH
REF_FRAME      = TEME
TIME_SYSTEM    = UTC
MEAN_ELEMENT_THEORY = SGP/SGP4

EPOCH          = 2026-01-05T14:00:03.000384
MEAN_MOTION    = 15.40662679
ECCENTRICITY   = .00014916
INCLINATION    = 43.0001
RA_OF_ASC_NODE = 172.5361
ARG_OF_PERICENTER = 275.4140
MEAN_ANOMALY   = 38.3996

EPHEMERIS_TYPE = 0
CLASSIFICATION_TYPE = U
NORAD_CAT_ID   = 67119
ELEMENT_SET_NO = 999
REV_AT_EPOCH   = 464
BSTAR          = .73468595E-3
MEAN_MOTION_DOT = .30471E-3
MEAN_MOTION_DDOT = 0

