STARLINK-36208          
1 67108U 25299G   26005.58336806 -.00150040  00000+0 -25968-2 0  9994
2 67108  42.9998 172.4929 0001375 269.9813  62.7734 15.50624329  4643
STARLINK-35764          
1 67109U 25299H   26005.58336806 -.02067773  00000+0 -48931-1 0  9991
2 67109  42.9999 172.5237 0001311 264.0444  56.1968 15.44576957  4534
STARLINK-35781          
1 67110U 25299J   26005.58336806 -.00133796  00000+0 -23095-2 0  9995
2 67110  42.9999 172.4772 0001582 263.8432  74.6481 15.50632472  4596
STARLINK-35875          
1 67111U 25299K   26005.58336806 -.00179346  00000+0 -31130-2 0  9996
2 67111  42.9997 172.4835 0001558 265.1645  71.4034 15.50656635  4539
STARLINK-35906          
1 67112U 25299L   26005.58336806 -.00141263  00000+0 -24407-2 0  9993
2 67112  42.9999 172.4726 0001457 268.5973  71.8091 15.50636483  4536
STARLINK-35789          
1 67113U 25299M   26005.58336806  .00014555  00000+0  25358-3 0  9992
2 67113  42.9999 172.4677 0001571 259.8582  82.4211 15.50565333  4535
STARLINK-36180          
1 67114U 25299N   26005.58336806 -.00111440  00000+0 -19190-2 0  9992
2 67114  42.9998 172.4630 0001562 259.7578  84.5008 15.50606443  4645
STARLINK-35892          
1 67115U 25299P   26005.58336806 -.02066054  00000+0 -46096-1 0  9999
2 67115  42.9995 172.4772 0001415 263.2201  75.5092 15.46271759  4534
STARLINK-35738          
1 67116U 25299Q   26005.58336806 -.02103764  00000+0 -40111-1 0  9992
2 67116  42.9996 172.4534 0001455 260.0069  88.0572 15.50772956  4535
STARLINK-35674          
1 67117U 25299R   26005.58336806  .00033146  00000+0  79836-3 0  9993
2 67117  43.0000 172.5671 0001888 268.8422  32.5181 15.40658644  4431
STARLINK-35701          
1 67118U 25299S   26005.58336806 -.00140124  00000+0 -24224-2 0  9991
2 67118  42.9998 172.4453 0001419 266.2784  85.6509 15.50615862  4592
STARLINK-36179          
1 67119U 25299T   26005.58336806  .00030471  00000+0  73469-3 0  9999
2 67119  43.0001 172.5361 0001491 275.4140  38.3996 15.40662679  4645
